COMMENT,ORIGINATOR,NORAD_CAT_ID,OBJECT_NAME,OBJECT_TYPE,CLASSIFICATION_TYPE,INTLDES,EPOCH,EPOCH_MICROSECONDS,MEAN_MOTION,ECCENTRICITY,INCLINATION,RA_OF_ASC_NODE,ARG_OF_PERICENTER,MEAN_ANOMALY,EPHEMERIS_TYPE,ELEMENT_SET_NO,REV_AT_EPOCH,BSTAR,MEAN_MOTION_DOT,MEAN_MOTION_DDOT,FILE,TLE_LINE0,TLE_LINE1,TLE_LINE2,OBJECT_ID,OBJECT_NUMBER,SEMIMAJOR_AXIS,PERIOD,APOGEE,PERIGEE,DECAYED,date
GENERATED VIA SPACETRACK.ORG API,18 SPCS,48895,SPACEBEE-108,PAYLOAD,U,21059S,2023/1/25 2:37,731360,15.2160314,0.0008898,97.5784,159.8858,52.7561,307.4484,0,999,8756,0.001294,0.00029254,0,3760359,0 SPACEBEE-108,1 48895U 21059S   23025.10956865  .00029254  00000-0  12940-2 0  9993,2 48895  97.5784 159.8858 0008898  52.7561 307.4484 15.21603140 87568,2021-059S,48895,6879.142,94.637,507.128,494.885,0,2023/2/16
GENERATED VIA SPACETRACK.ORG API,18 SPCS,48895,SPACEBEE-108,PAYLOAD,U,21059S,2023/1/25 8:56,980064,15.216153,0.0008914,97.5783,160.1507,51.9324,308.2714,0,999,8760,0.0011092,0.00025061,0,3761297,0 SPACEBEE-108,1 48895U 21059S   23025.37261551  .00025061  00000-0  11092-2 0  9992,2 48895  97.5783 160.1507 0008914  51.9324 308.2714 15.21615300 87601,2021-059S,48895,6879.105,94.636,507.102,494.838,0,2023/2/17
GENERATED VIA SPACETRACK.ORG API,18 SPCS,48895,SPACEBEE-108,PAYLOAD,U,21059S,2023/1/25 19:59,249280,15.21638859,0.0008904,97.5784,160.6141,50.7211,309.4813,0,999,8767,0.0011419,0.00025822,0,3761360,0 SPACEBEE-108,1 48895U 21059S   23025.83294270  .00025822  00000-0  11419-2 0  9995,2 48895  97.5784 160.6141 0008904  50.7211 309.4813 15.21638859 87676,2021-059S,48895,6879.034,94.635,507.024,494.774,0,2023/2/18
GENERATED VIA SPACETRACK.ORG API,18 SPCS,48895,SPACEBEE-108,PAYLOAD,U,21059S,2023/1/26 8:36,436864,15.21665476,0.0008921,97.5783,161.1445,48.7647,311.4356,0,999,8775,0.0010963,0.00024804,0,3761830,0 SPACEBEE-108,1 48895U 21059S   23026.35902126  .00024804  00000-0  10963-2 0  9991,2 48895  97.5783 161.1445 0008921  48.7647 311.4356 15.21665476 87756,2021-059S,48895,6878.954,94.633,506.955,494.682,0,2023/2/19
GENERATED VIA SPACETRACK.ORG API,18 SPCS,48895,SPACEBEE-108,PAYLOAD,U,21059S,2023/1/26 8:36,436864,15.21665476,0.0008921,97.5783,161.1445,48.7647,311.4356,0,999,8775,0.0010963,0.00024804,0,3761951,0 SPACEBEE-108,1 48895U 21059S   23026.35902126  .00024804  00000-0  10963-2 0  9991,2 48895  97.5783 161.1445 0008921  48.7647 311.4356 15.21665476 87756,2021-059S,48895,6878.954,94.633,506.955,494.682,0,2023/2/20
GENERATED VIA SPACETRACK.ORG API,18 SPCS,48895,SPACEBEE-108,PAYLOAD,U,21059S,2023/1/27 14:36,748928,15.2172438,0.0008802,97.5779,162.4026,44.3998,315.7942,0,999,8794,0.00099757,0.00022595,0,3762956,0 SPACEBEE-108,1 48895U 21059S   23027.60842302  .00022595  00000-0  99757-3 0  9993,2 48895  97.5779 162.4026 0008802  44.3998 315.7942 15.21724380 87948,2021-059S,48895,6878.776,94.629,506.696,494.586,0,2023/2/21
GENERATED VIA SPACETRACK.ORG API,18 SPCS,48895,SPACEBEE-108,PAYLOAD,U,21059S,2023/1/27 14:36,748928,15.2172438,0.0008802,97.5779,162.4026,44.3998,315.7942,0,999,8794,0.00099757,0.00022595,0,3763024,0 SPACEBEE-108,1 48895U 21059S   23027.60842302  .00022595  00000-0  99757-3 0  9993,2 48895  97.5779 162.4026 0008802  44.3998 315.7942 15.21724380 87948,2021-059S,48895,6878.776,94.629,506.696,494.586,0,2023/2/22
GENERATED VIA SPACETRACK.ORG API,18 SPCS,48895,SPACEBEE-108,PAYLOAD,U,21059S,2023/1/27 20:54,242848,15.21734756,0.000878,97.578,162.6675,43.4976,316.695,0,999,8798,0.00093784,0.00021241,0,3763218,0 SPACEBEE-108,1 48895U 21059S   23027.87144957  .00021241  00000-0  93784-3 0  9994,2 48895  97.5780 162.6675 0008780  43.4976 316.6950 15.21734756 87984,2021-059S,48895,6878.745,94.629,506.649,494.57,0,2023/2/23
GENERATED VIA SPACETRACK.ORG API,18 SPCS,48895,SPACEBEE-108,PAYLOAD,U,21059S,2023/1/28 7:57,387840,15.21755158,0.0008801,97.5778,163.1313,41.4947,318.6956,0,999,8805,0.00098213,0.00022264,0,3763924,0 SPACEBEE-108,1 48895U 21059S   23028.33174060  .00022264  00000-0  98213-3 0  9992,2 48895  97.5778 163.1313 0008801  41.4947 318.6956 15.21755158 88052,2021-059S,48895,6878.683,94.628,506.602,494.494,0,2023/2/24
GENERATED VIA SPACETRACK.ORG API,18 SPCS,48895,SPACEBEE-108,PAYLOAD,U,21059S,2023/1/28 20:35,257664,15.21774909,0.0008752,97.5779,163.661,39.7453,320.4422,0,999,8813,0.00082158,0.00018614,0,3764201,0 SPACEBEE-108,1 48895U 21059S   23028.85778076  .00018614  00000-0  82158-3 0  9991,2 48895  97.5779 163.6610 0008752  39.7453 320.4422 15.21774909 88138,2021-059S,48895,6878.624,94.626,506.509,494.469,0,2023/2/25
GENERATED VIA SPACETRACK.ORG API,18 SPCS,48895,SPACEBEE-108,PAYLOAD,U,21059S,2023/1/28 22:09,452512,15.2177736,0.0008769,97.578,163.7274,39.5199,320.6675,0,999,8814,0.00082808,0.00018763,0,3764282,0 SPACEBEE-108,1 48895U 21059S   23028.92353533  .00018763  00000-0  82808-3 0  9993,2 48895  97.5780 163.7274 0008769  39.5199 320.6675 15.21777360 88147,2021-059S,48895,6878.616,94.626,506.513,494.45,0,2023/2/26
GENERATED VIA SPACETRACK.ORG API,18 SPCS,48895,SPACEBEE-108,PAYLOAD,U,21059S,2023/1/29 20:15,52864,15.21813136,0.0008739,97.578,164.6545,36.7801,323.4032,0,999,8828,0.00072961,0.00016536,0,3765015,0 SPACEBEE-108,1 48895U 21059S   23029.84408626  .00016536  00000-0  72961-3 0  9994,2 48895  97.5780 164.6545 0008739  36.7801 323.4032 15.21813136 88289,2021-059S,48895,6878.509,94.624,506.385,494.363,0,2023/2/27
GENERATED VIA SPACETRACK.ORG API,18 SPCS,48895,SPACEBEE-108,PAYLOAD,U,21059S,2023/1/30 8:52,214560,15.21830633,0.0008773,97.578,165.1843,34.8861,325.2948,0,999,8836,0.0007264,0.00016471,0,3765444,0 SPACEBEE-108,1 48895U 21059S   23030.37010665  .00016471  00000-0  72640-3 0  9998,2 48895  97.5780 165.1843 0008773  34.8861 325.2948 15.21830633 88365,2021-059S,48895,6878.456,94.623,506.355,494.286,0,2023/2/28
GENERATED VIA SPACETRACK.ORG API,18 SPCS,48895,SPACEBEE-108,PAYLOAD,U,21059S,2023/1/30 8:52,214560,15.21830633,0.0008773,97.578,165.1843,34.8861,325.2948,0,999,8836,0.0007264,0.00016471,0,3765576,0 SPACEBEE-108,1 48895U 21059S   23030.37010665  .00016471  00000-0  72640-3 0  9998,2 48895  97.5780 165.1843 0008773  34.8861 325.2948 15.21830633 88365,2021-059S,48895,6878.456,94.623,506.355,494.286,0,2023/3/1
GENERATED VIA SPACETRACK.ORG API,18 SPCS,48895,SPACEBEE-108,PAYLOAD,U,21059S,2023/1/30 21:30,856128,15.218474,0.0008733,97.5779,165.7143,33.374,326.8044,0,999,8844,0.00069082,0.00015667,0,3765849,0 SPACEBEE-108,1 48895U 21059S   23030.89612102  .00015667  00000-0  69082-3 0  9991,2 48895  97.5779 165.7143 0008733  33.3740 326.8044 15.21847400 88441,2021-059S,48895,6878.405,94.622,506.277,494.264,0,2023/3/2
GENERATED VIA SPACETRACK.ORG API,18 SPCS,48895,SPACEBEE-108,PAYLOAD,U,21059S,2023/1/31 8:33,76480,15.21864824,0.0008692,97.5781,166.1783,32.0552,328.121,0,999,8851,0.00074786,0.00016978,0,3766475,0 SPACEBEE-108,1 48895U 21059S   23031.35637820  .00016978  00000-0  74786-3 0  9990,2 48895  97.5781 166.1783 0008692  32.0552 328.1210 15.21864824 88517,2021-059S,48895,6878.353,94.621,506.197,494.239,0,2023/3/3
GENERATED VIA SPACETRACK.ORG API,18 SPCS,48895,SPACEBEE-108,PAYLOAD,U,21059S,2023/2/1 3:29,727456,15.21894142,0.0008695,97.578,166.9729,29.151,331.021,0,999,8863,0.00080108,0.0001821,0,3766827,0 SPACEBEE-108,1 48895U 21059S   23032.14537879  .00018210  00000-0  80108-3 0  9997,2 48895  97.5780 166.9729 0008695  29.1510 331.0210 15.21894142 88630,2021-059S,48895,6878.265,94.619,506.11,494.149,0,2023/3/4
GENERATED VIA SPACETRACK.ORG API,18 SPCS,48895,SPACEBEE-108,PAYLOAD,U,21059S,2023/2/1 8:13,910592,15.21901986,0.0008677,97.578,167.1716,28.3609,331.8097,0,999,8866,0.00079206,0.00018008,0,3767525,0 SPACEBEE-108,1 48895U 21059S   23032.34262628  .00018008  00000-0  79206-3 0  9998,2 48895  97.5780 167.1716 0008677  28.3609 331.8097 15.21901986 88668,2021-059S,48895,6878.241,94.618,506.074,494.138,0,2023/3/5
GENERATED VIA SPACETRACK.ORG API,18 SPCS,48895,SPACEBEE-108,PAYLOAD,U,21059S,2023/2/2 7:53,614080,15.2194435,0.0008624,97.578,168.1653,24.9281,335.237,0,999,8881,0.00096761,0.00022054,0,3768366,0 SPACEBEE-108,1 48895U 21059S   23033.32884970  .00022054  00000-0  96761-3 0  9998,2 48895  97.5780 168.1653 0008624  24.9281 335.2370 15.21944350 88810,2021-059S,48895,6878.113,94.616,505.91,494.047,0,2023/3/6
GENERATED VIA SPACETRACK.ORG API,18 SPCS,48895,SPACEBEE-108,PAYLOAD,U,21059S,2023/2/2 7:53,614080,15.2194435,0.0008624,97.578,168.1653,24.9281,335.237,0,999,8881,0.00096761,0.00022054,0,3768486,0 SPACEBEE-108,1 48895U 21059S   23033.32884970  .00022054  00000-0  96761-3 0  9998,2 48895  97.5780 168.1653 0008624  24.9281 335.2370 15.21944350 88810,2021-059S,48895,6878.113,94.616,505.91,494.047,0,2023/3/7
GENERATED VIA SPACETRACK.ORG API,18 SPCS,48895,SPACEBEE-108,PAYLOAD,U,21059S,2023/2/3 7:33,129920,15.21980849,0.0008591,97.5784,169.1591,21.382,338.7773,0,999,8896,0.00086057,0.00019621,0,3770323,0 SPACEBEE-108,1 48895U 21059S   23034.31504780  .00019621  00000-0  86057-3 0  9999,2 48895  97.5784 169.1591 0008591  21.3820 338.7773 15.21980849 88963,2021-059S,48895,6878.003,94.614,505.777,493.959,0,2023/3/8
GENERATED VIA SPACETRACK.ORG API,18 SPCS,48895,SPACEBEE-108,PAYLOAD,U,21059S,2023/2/3 7:33,129920,15.21980849,0.0008591,97.5784,169.1591,21.382,338.7773,0,999,8896,0.00086057,0.00019621,0,3770451,0 SPACEBEE-108,1 48895U 21059S   23034.31504780  .00019621  00000-0  86057-3 0  9999,2 48895  97.5784 169.1591 0008591  21.3820 338.7773 15.21980849 88963,2021-059S,48895,6878.003,94.614,505.777,493.959,0,2023/3/9
GENERATED VIA SPACETRACK.ORG API,18 SPCS,48895,SPACEBEE-108,PAYLOAD,U,21059S,2023/2/3 20:11,194880,15.22003963,0.0008577,97.5784,169.6891,19.9132,340.2437,0,999,8904,0.0009161,0.00020909,0,3770748,0 SPACEBEE-108,1 48895U 21059S   23034.84100920  .00020909  00000-0  91610-3 0  9997,2 48895  97.5784 169.6891 0008577  19.9132 340.2437 15.22003963 89043,2021-059S,48895,6877.934,94.612,505.698,493.9,0,2023/3/10
